[{"OBJECT_NAME":"HAWK-2B","OBJECT_ID":"2021-006CZ","EPOCH":"2026-03-09T16:13:51.664224","MEAN_MOTION":15.33301353,"ECCENTRICITY":0.00071021,"INCLINATION":97.2334,"RA_OF_ASC_NODE":114.114,"ARG_OF_PERICENTER":185.9063,"MEAN_ANOMALY":174.2098,"EPHEMERIS_TYPE":0,"CLASSIFICATION_TYPE":"U","NORAD_CAT_ID":47508,"ELEMENT_SET_NO":999,"REV_AT_EPOCH":28424,"BSTAR":0.00029650607,"MEAN_MOTION_DOT":9.474e-5,"MEAN_MOTION_DDOT":0},{"OBJECT_NAME":"STARLINK-33995","OBJECT_ID":"2025-087K","EPOCH":"2026-03-09T22:33:24.380928","MEAN_MOTION":15.30268215,"ECCENTRICITY":0.00010276,"INCLINATION":53.1593,"RA_OF_ASC_NODE":218.6921,"ARG_OF_PERICENTER":127.0281,"MEAN_ANOMALY":233.0814,"EPHEMERIS_TYPE":0,"CLASSIFICATION_TYPE":"U","NORAD_CAT_ID":63706,"ELEMENT_SET_NO":999,"REV_AT_EPOCH":4923,"BSTAR":0.0028465806,"MEAN_MOTION_DOT":0.00085098,"MEAN_MOTION_DDOT":0}]
